#dP2024  4 26 12  0  0.00000000      96 __u+U IGS20 EXT  IAC
## 2311 475200.00000000   900.00000000 60426 0.5000000000000
+  119   C06C07C08C09C10C11C12C13C14C16C19C20C21C22C23C24C25
+        C26C27C28C29C30C32C33C34C35C36C37C38C39C40C41C42C43
+        C44C45C46E02E03E04E05E07E08E09E10E11E12E13E14E15E18
+        E19E21E24E25E26E27E30E31E33E34E36G02G03G04G05G06G07
+        G08G09G10G11G12G13G14G15G16G17G18G19G20G21G22G23G24
+        G25G26G27G28G29G30G31G32J02J03J04R01R02R03R04R05R07
+        R08R09R11R12R13R14R15R16R17R18R19R20R21R22R24R25R26
++        10 11 10 10 11 10  9  9  9 10  7  6  9  9  9  9  8
++         8  9 10  8  7  8  8  8  7  7  8  9  7 10  9  8  9
++         8  9  7  7  7 10  7  7  7  7  7  7  7  7  7  7  8
++         8  8  8  7  7  8  8  8  7  7  7  7  8  6  7  6  8
++         7  7  7  6  8  7  7  8  6  7  7  7  6  6  7  7  7
++         9  8  6  7  7  7  8  7  8  9 11  8  8  8  7  9  8
++         8  7  9  8  9  7  9  7  6  8  8  8  8  6  8  8  8
%c M  cc GPS ccc cccc cccc cccc cccc ccccc ccccc ccccc ccccc
%c cc cc ccc ccc cccc cccc cccc cccc ccccc ccccc ccccc ccccc
%f  0.0000000  0.000000000  0.00000000000  0.000000000000000
%f  0.0000000  0.000000000  0.00000000000  0.000000000000000
%i    0    0    0    0      0      0      0      0         0
%i    0    0    0    0      0      0      0      0         0
/* IAC                                ULTRA-RAPID PREDICTION
/* S/V CLOCKS ARE ALIGNED TO GNSS TIME                      
/* G:C1WC2W R:C1PC2P E:C1XC5X C:C2IC6I J:C1CC2S             
/* PCV:IGS20_2290 OL/AL:FES2004  NONE     YN ORB:CoN CLK:CoN
*  2024 04 27 10  0  0.00000000
PC06 -14974.278112  26251.389280 -29423.234982    378.186474
PC07  -9845.232526  40304.365750  -6748.955156   -782.298590
PC08     22.182975  24976.048819  34016.646882    -61.944923
PC09  -9068.976944  25520.124308 -31996.418631   -820.421911
PC10  -3072.917512  41740.000399    894.329024     71.118940
PC11  15911.325112 -20033.007703 -11093.870830    533.297820
PC12  24399.539799 -11476.876837   7218.823415   -237.887318
PC13   6673.170605  29077.507707  30069.425000    433.145220
PC14   5573.002287 -24338.086475 -12516.294464    743.545094
PC16 -20735.617267  25210.346271 -26581.501946   -484.571896
PC19    659.408241  27604.855875   3934.970051   -913.470881
PC20 -10154.527187  18522.209492  18229.539210   -403.516499
PC21  15826.696704   2699.384477 -22802.956063   -964.357599
PC22  11758.059563  21352.385042 -13552.879168    -24.431229
PC23 -19377.807441 -16837.758678  10945.532584   -776.656862
PC24  17979.512896  -7906.557638  19818.696010    933.414115
PC25  -1678.309416 -17467.241010  21684.215205    385.318823
PC26  26573.246523   5497.965094   6566.147021   -283.138049
PC27 -23341.608830   4436.897896 -14669.813968    304.839537
PC28 -13270.976376  -9822.244776 -22497.151426    233.335963
PC29  -6660.926218  20903.226297  17238.839971    273.749340
PC30 -21435.682160  17870.373314    781.178109    -64.431558
PC32 -15884.801395  -2729.658553  22802.095943   -610.561631
PC33   -814.276511 -27623.426905  -3973.066571   -969.010798
PC34  20629.158517 -18626.739393  -2378.959532    421.264431
PC35  13420.002035   9621.489283  22474.048198    377.032584
PC36   1139.165476  17466.583927 -21714.577083     64.245490
PC37 -26432.693472  -6245.608646  -6346.845354   -965.364394
PC38  -7933.154466  22291.262754  34964.954482    151.587650
PC39 -24193.687987  25875.064667 -22972.246868     -8.133642
PC40 -15637.480055  37808.487920  -9575.550230    -67.425502
PC41 -11528.767520 -21949.186695  12889.342166   -934.254212
PC42  10927.593763 -17120.880628 -19107.319416   -442.685686
PC43   7496.641939 -21144.021653 -16598.057838     69.545505
PC44  23133.845880  -5130.421850  14695.464037    456.184641
PC45  19319.881969  16864.862474 -11030.330843    -82.358185
PC46 -17266.551049   8330.655876 -20270.874241   -143.429327
PE02   1733.979878  24268.824373 -16875.288749    122.810561
PE03  -8405.757446  27480.638493  -7056.629569   -109.995853
PE04  -7340.758765 -18894.748287  21586.098505   -383.411158
PE05 -18900.081086  19777.445714  11308.010020   4742.412612
PE07  18285.154822    -77.214232 -23267.640291   -116.888824
PE08   6617.596837  19460.803766 -21286.617847   -261.595773
PE09 -18120.844747    -13.096986  23410.081619   -422.169652
PE10 -24347.323206  -8169.419826 -14730.751676   -620.355186
PE11 -29104.346818  -1861.342287  -5142.594747   2971.041689
PE12 -16508.289042 -12762.092040 -21012.024284  -1012.810674
PE13  28947.850616   2195.863716   5739.038732    -21.243881
PE14 -17353.386454  15723.694690  -9202.139997     18.794667
PE15  15931.597429  12898.234708  21349.546682    -99.515960
PE18  14608.363433 -28177.580159  -1230.317816     45.912632
PE19  10034.573028 -27367.817575   5170.721489   -167.502268
PE21  13356.201154 -10270.905130  24332.760610   -591.447490
PE24 -21299.766934 -10595.659683 -17619.732341   -730.579733
PE25 -13627.403022   9872.898556 -24350.627264      3.823857
PE26  24430.320898  -9989.093376 -13393.482126    437.823438
PE27  21277.459458  10286.813885  17824.127206   -334.880603
PE30  16396.405704  24639.764789    730.559966   -241.345535
PE31 -16553.259493 -24522.214154   -885.981630    -21.938456
PE33   6810.005124 -15820.489963 -24073.969955     10.962664
PE34  -6185.332674  15882.758193  24191.870705   -108.009736
PE36 -24840.949783   9595.176461  12939.467953   -219.137430
PG02  -5191.100911 -14105.508001 -21437.680327   -446.243093
PG03 -11933.740728 -23281.204124  -5110.854217    333.257319
PG04  -1997.517623 -20833.184984  16293.413775    348.247829
PG05   1004.254305  20276.979658  16899.845265   -170.641508
PG06 -25412.771057   5532.933480   5736.189404    301.874382
PG07 -22965.601620  -6976.772227  12379.543673   -116.450329
PG08   4474.319137 -24730.688340  -7994.231710    146.402044
PG09 -12132.967092  -9805.215052  21411.863692    175.367878
PG10  17684.234188   2698.732734 -19534.036594    -14.250048
PG11 -17095.535218  11959.513114  16430.308301   -647.580493
PG12   9169.112975  24173.275461  -6495.152478   -500.294181
PG13 -13418.297681  22715.712802  -1835.968446    646.063371
PG14 -19154.899114  -6390.584395 -17326.964798    386.628360
PG15  -1139.723469  25268.632063  -8254.640649    152.861923
PG16   4867.894186 -17694.953247  18697.875577   -306.360659
PG17 -17359.811131   4085.093979 -19316.520856    709.990139
PG18  23398.907032   6109.811739  11211.414989   -601.495454
PG19 -18791.528256  12139.326816 -14198.805495    474.020427
PG20  -8247.178675  13347.071751  21507.767908    378.660189
PG21    175.848657 -15118.643948 -21304.904108    124.950985
PG22 -15744.596212   1731.314215 -20852.690652     -5.508822
PG23  19726.381557  13710.224002 -11518.950517    211.157190
PG24   3241.199918  15665.678654 -21622.141105   -463.931925
PG25  16659.169883  20743.528727   1946.374260    494.628304
PG26  14113.291388  -7500.204511  21090.178520    161.030603
PG27  12678.782007 -22872.961042   2743.060654    -21.027279
PG28  25911.348203  -5050.318843   2892.003864   -220.079025
PG29   9331.128049  12888.686490  21192.184529   -600.508044
PG30 -26634.767810    699.248556   1993.903322   -399.095083
PG31  21352.453894 -10068.723369  12342.625996   -227.946385
PG32  17451.148668  -7341.728111 -18332.931453   -618.407487
PJ02 -19554.122574  24778.602986 -23419.494217     -4.574945
PJ03 -30677.326538  26583.990116  16594.867710      0.044138
PJ04 -27538.694894  27871.528298  21412.046676     50.394426
PR01   7344.488163  17840.463253 -16670.180218     83.664246
PR02  10744.913303    556.053098 -23076.674066    -22.814679
PR03   8726.648001 -17512.232244 -16281.026768     99.062301
PR04   2159.666454 -25398.618234   -783.849802    233.849636
PR05  -5582.433323 -19743.547037  15160.365787    130.618202
PR07  -8539.023466  18227.804118  15744.226755     81.124286
PR08  -1915.262196  25444.490335    690.296135    -75.225837
PR09 -21979.837404  -7255.797881 -10794.600387    183.348025
PR11   2894.570901  13830.964782 -21221.680555     26.635665
PR12  18622.440777  16049.002245  -6804.293716     39.470719
PR13  22174.981738   9236.892144   8569.208935    -46.798668
PR14  12226.425456  -4772.696634  21879.573193     26.436119
PR15  -4261.957733 -14573.096050  20517.826207     80.237262
PR16 -18579.860431 -15994.626852   7121.474934     25.120989
PR17  21006.560472 -13276.548916  -5834.273887     81.673931
PR18   8964.052981 -13953.168601 -19350.174025    139.228102
PR19  -5810.888290  -8779.499080 -23238.970119   -274.561412
PR20 -21994.432597   3542.550398 -12463.316571   -111.925525
PR21 -21125.392935  13050.849253   5782.149999    -96.151687
PR22  -8130.257864  13874.418799  19828.359491    114.784915
PR24  22110.990623  -4578.118890  11888.355050    -53.527659
PR25 -21354.312701  12557.980440   6046.072814    -31.934502
PR26  -2281.188072  25327.886223   1831.050615    -22.751807
EOF
